OBJECT_NAME,OBJECT_ID,EPOCH,MEAN_MOTION,ECCENTRICITY,INCLINATION,RA_OF_ASC_NODE,ARG_OF_PERICENTER,MEAN_ANOMALY,EPHEMERIS_TYPE,CLASSIFICATION_TYPE,NORAD_CAT_ID,ELEMENT_SET_NO,REV_AT_EPOCH,BSTAR,MEAN_MOTION_DOT,MEAN_MOTION_DDOT
STARLINK-3812,2022-045R,2026-06-28T22:12:30.202848,15.08847782,.00015033,53.1616,59.6112,92.0968,268.0196,0,U,52346,999,23257,.16498578E-3,.2339E-4,0
STARLINK-3826,2022-045S,2026-06-29T12:00:02.998944,15.18190146,.0001497,53.1592,56.7363,102.5171,231.8445,0,U,52347,999,583,.40795E-2,.85103E-3,0
STARLINK-3829,2022-045T,2026-06-29T12:00:02.998944,15.15028630,.0001221,53.1604,56.7736,85.2962,329.6125,0,U,52348,999,583,.43828E-2,.83529E-3,0
STARLINK-3819,2022-045U,2026-06-29T12:00:02.998944,15.17485297,.0002069,53.1598,56.6833,85.2155,316.4157,0,U,52349,999,578,.41497E-2,.84831E-3,0
STARLINK-3754,2022-045V,2026-06-29T12:00:02.998944,15.17842603,.0001361,53.1607,56.7296,82.7367,15.2830,0,U,52350,999,583,.39446E-2,.81415E-3,0
STARLINK-3838,2022-045X,2026-06-28T23:14:44.464416,15.08827554,.00013389,53.1603,59.4082,102.8799,257.2343,0,U,52352,999,23258,.53921236E-4,.57E-5,0
STARLINK-3807,2022-045Y,2026-06-29T12:00:02.998944,15.18340119,.0001786,53.1611,56.6968,75.3090,59.5026,0,U,52353,999,583,.37601E-2,.78686E-3,0
STARLINK-3877,2022-045AA,2026-06-28T21:44:39.142176,15.08830668,.0001372,53.1606,59.6884,91.4942,268.6206,0,U,52355,999,23257,.73764208E-4,.886E-5,0
STARLINK-3801,2022-045AB,2026-06-29T12:00:02.998944,15.19132681,.0001923,53.1605,56.6883,89.3383,144.5757,0,U,52356,999,578,.3773E-2,.80814E-3,0
STARLINK-3821,2022-045AC,2026-06-29T12:00:02.998944,15.17057952,.0001978,53.1609,56.8128,70.0021,64.9946,0,U,52357,999,569,.39327E-2,.79337E-3,0
STARLINK-3837,2022-045AD,2026-06-28T22:42:56.459520,15.08834545,.00012488,53.1608,59.5073,89.9649,270.1486,0,U,52358,999,23258,.8463468E-5,-.153E-5,0
STARLINK-3853,2022-045AE,2026-06-28T23:05:31.193376,15.08829600,.00013884,53.1613,59.4482,95.9675,264.1475,0,U,52359,999,23258,.33699858E-4,.248E-5,0
STARLINK-3728,2022-045AG,2026-06-29T12:00:02.998944,15.18575786,.0001344,53.1590,56.6752,101.1509,165.3934,0,U,52361,999,583,.39312E-2,.8289E-3,0
STARLINK-3848,2022-045AH,2026-06-29T12:00:02.998944,15.29331930,.0001104,53.1596,45.8219,84.4931,355.5732,0,U,52362,999,583,.18178E-2,.52429E-3,0
STARLINK-3830,2022-045AJ,2026-06-29T12:00:02.998944,15.13802101,.0001583,53.1614,56.9322,67.9916,85.1281,0,U,52363,999,573,.41801E-2,.76868E-3,0
STARLINK-3820,2022-045AK,2026-06-28T20:31:46.369056,15.08828646,.00013411,53.1619,49.8301,93.6892,266.4252,0,U,52364,999,23270,.56419492E-4,.61E-5,0
STARLINK-3874,2022-045AL,2026-06-28T22:38:58.144128,15.08829318,.00012756,53.1614,49.5179,87.5850,272.5287,0,U,52365,999,23271,.61318889E-4,.688E-5,0
STARLINK-3808,2022-045AM,2026-06-28T22:12:28.401408,15.08828436,.00014107,53.1617,49.6030,87.2397,272.8756,0,U,52366,999,23271,.25113531E-4,.112E-5,0
STARLINK-3817,2022-045AN,2026-06-28T20:47:41.055360,15.08828034,.00013869,53.1611,49.8675,92.7784,267.3366,0,U,52367,999,23270,.91399109E-4,.1166E-4,0
STARLINK-3834,2022-045AP,2026-06-28T21:56:34.668960,15.08829608,.00015065,53.1619,49.6523,81.8346,278.2817,0,U,52368,999,23270,.15448299E-3,.2171E-4,0
STARLINK-3841,2022-045AQ,2026-06-28T22:17:46.271328,15.08831940,.00013146,53.1611,49.5851,90.0598,270.0544,0,U,52369,999,23271,.70462682E-4,.833E-5,0
STARLINK-3827,2022-045AR,2026-06-28T22:08:32.970048,15.08834960,.0001208,53.1609,49.6232,97.4113,262.7015,0,U,52370,999,23271,-.12547309E-3,-.2284E-4,0
STARLINK-3798,2022-045AS,2026-06-29T05:59:15.000288,15.09432857,.000128,53.1618,48.1493,102.8408,257.2726,0,U,52371,999,23275,.45891E-2,.74732E-3,0
STARLINK-3796,2022-045AT,2026-06-29T12:00:02.998944,15.14134614,.0000293,53.1610,46.9444,68.8097,292.6154,0,U,52372,999,583,.45998E-2,.85515E-3,0
STARLINK-3550,2022-045AU,2026-06-29T12:00:02.998944,15.28988573,.0000597,53.1607,45.6208,86.3724,294.5827,0,U,52373,999,569,.46483E-2,.134702E-2,0
STARLINK-3762,2022-045AV,2026-06-29T12:00:02.998944,15.17872392,.0001569,53.1595,46.7058,84.0632,81.0467,0,U,52374,999,584,.40092E-2,.82842E-3,0
STARLINK-3785,2022-045AW,2026-06-29T12:00:02.998944,15.15252054,.0000821,53.1592,46.8687,113.1014,307.9423,0,U,52375,999,578,.45113E-2,.86571E-3,0
STARLINK-3805,2022-045AY,2026-06-28T22:01:54.832800,15.08830238,.00013921,53.1616,49.8559,95.0621,265.0530,0,U,52377,999,23270,.3139461E-5,-.238E-5,0
STARLINK-3806,2022-045AZ,2026-06-28T22:54:52.030368,15.08846281,.00014052,53.1609,49.4693,101.1202,258.9948,0,U,52378,999,23272,.57100035E-4,.621E-5,0
STARLINK-3800,2022-045BA,2026-06-28T23:00:09.879552,15.08833766,.00011825,53.1610,49.4525,89.8546,270.2581,0,U,52379,999,23272,.57558992E-4,.628E-5,0
