[
  {
    "name": "STARLINK-3812",
    "noradId": "52346",
    "line1": "1 52346U 22045R   26179.92534957  .00002339  00000+0  16499-3 0  9990",
    "line2": "2 52346  53.1616  59.6112 0001503  92.0968 268.0196 15.08847782232572"
  },
  {
    "name": "STARLINK-3826",
    "noradId": "52347",
    "line1": "1 52347U 22045S   26180.50003471  .00085103  00000+0  40795-2 0  9994",
    "line2": "2 52347  53.1592  56.7363 0001497 102.5171 231.8445 15.18190146  5835"
  },
  {
    "name": "STARLINK-3829",
    "noradId": "52348",
    "line1": "1 52348U 22045T   26180.50003471  .00083529  00000+0  43828-2 0  9995",
    "line2": "2 52348  53.1604  56.7736 0001221  85.2962 329.6125 15.15028630  5830"
  },
  {
    "name": "STARLINK-3819",
    "noradId": "52349",
    "line1": "1 52349U 22045U   26180.50003471  .00084831  00000+0  41497-2 0  9993",
    "line2": "2 52349  53.1598  56.6833 0002069  85.2155 316.4157 15.17485297  5786"
  },
  {
    "name": "STARLINK-3754",
    "noradId": "52350",
    "line1": "1 52350U 22045V   26180.50003471  .00081415  00000+0  39446-2 0  9991",
    "line2": "2 52350  53.1607  56.7296 0001361  82.7367  15.2830 15.17842603  5830"
  },
  {
    "name": "STARLINK-3838",
    "noradId": "52352",
    "line1": "1 52352U 22045X   26179.96857019  .00000570  00000+0  53921-4 0  9995",
    "line2": "2 52352  53.1603  59.4082 0001338 102.8799 257.2343 15.08827554232587"
  },
  {
    "name": "STARLINK-3807",
    "noradId": "52353",
    "line1": "1 52353U 22045Y   26180.50003471  .00078686  00000+0  37601-2 0  9991",
    "line2": "2 52353  53.1611  56.6968 0001786  75.3090  59.5026 15.18340119  5839"
  },
  {
    "name": "STARLINK-3877",
    "noradId": "52355",
    "line1": "1 52355U 22045AA  26179.90600859  .00000886  00000+0  73764-4 0  9997",
    "line2": "2 52355  53.1606  59.6884 0001372  91.4942 268.6206 15.08830668232579"
  },
  {
    "name": "STARLINK-3801",
    "noradId": "52356",
    "line1": "1 52356U 22045AB  26180.50003471  .00080814  00000+0  37730-2 0  9993",
    "line2": "2 52356  53.1605  56.6883 0001923  89.3383 144.5757 15.19132681  5788"
  },
  {
    "name": "STARLINK-3821",
    "noradId": "52357",
    "line1": "1 52357U 22045AC  26180.50003471  .00079337  00000+0  39327-2 0  9996",
    "line2": "2 52357  53.1609  56.8128 0001978  70.0021  64.9946 15.17057952  5693"
  },
  {
    "name": "STARLINK-3837",
    "noradId": "52358",
    "line1": "1 52358U 22045AD  26179.94648680 -.00000153  00000+0  84635-5 0  9996",
    "line2": "2 52358  53.1608  59.5073 0001248  89.9649 270.1486 15.08834545232588"
  },
  {
    "name": "STARLINK-3853",
    "noradId": "52359",
    "line1": "1 52359U 22045AE  26179.96216659  .00000248  00000+0  33700-4 0  9996",
    "line2": "2 52359  53.1613  59.4482 0001388  95.9675 264.1475 15.08829600232586"
  },
  {
    "name": "STARLINK-3728",
    "noradId": "52361",
    "line1": "1 52361U 22045AG  26180.50003471  .00082890  00000+0  39312-2 0  9993",
    "line2": "2 52361  53.1590  56.6752 0001344 101.1509 165.3934 15.18575786  5832"
  },
  {
    "name": "STARLINK-3848",
    "noradId": "52362",
    "line1": "1 52362U 22045AH  26180.50003471  .00052429  00000+0  18178-2 0  9996",
    "line2": "2 52362  53.1596  45.8219 0001104  84.4931 355.5732 15.29331930  5835"
  },
  {
    "name": "STARLINK-3830",
    "noradId": "52363",
    "line1": "1 52363U 22045AJ  26180.50003471  .00076868  00000+0  41801-2 0  9999",
    "line2": "2 52363  53.1614  56.9322 0001583  67.9916  85.1281 15.13802101  5735"
  },
  {
    "name": "STARLINK-3820",
    "noradId": "52364",
    "line1": "1 52364U 22045AK  26179.85539779  .00000610  00000+0  56419-4 0  9996",
    "line2": "2 52364  53.1619  49.8301 0001341  93.6892 266.4252 15.08828646232707"
  },
  {
    "name": "STARLINK-3874",
    "noradId": "52365",
    "line1": "1 52365U 22045AL  26179.94372852  .00000688  00000+0  61319-4 0  9994",
    "line2": "2 52365  53.1614  49.5179 0001275  87.5850 272.5287 15.08829318232719"
  },
  {
    "name": "STARLINK-3808",
    "noradId": "52366",
    "line1": "1 52366U 22045AM  26179.92532872  .00000112  00000+0  25114-4 0  9998",
    "line2": "2 52366  53.1617  49.6030 0001410  87.2397 272.8756 15.08828436232718"
  },
  {
    "name": "STARLINK-3817",
    "noradId": "52367",
    "line1": "1 52367U 22045AN  26179.86644740  .00001166  00000+0  91399-4 0  9998",
    "line2": "2 52367  53.1611  49.8675 0001386  92.7784 267.3366 15.08828034232702"
  },
  {
    "name": "STARLINK-3834",
    "noradId": "52368",
    "line1": "1 52368U 22045AP  26179.91429015  .00002171  00000+0  15448-3 0  9998",
    "line2": "2 52368  53.1619  49.6523 0001506  81.8346 278.2817 15.08829608232708"
  },
  {
    "name": "STARLINK-3841",
    "noradId": "52369",
    "line1": "1 52369U 22045AQ  26179.92900777  .00000833  00000+0  70463-4 0  9991",
    "line2": "2 52369  53.1611  49.5851 0001314  90.0598 270.0544 15.08831940232712"
  },
  {
    "name": "STARLINK-3827",
    "noradId": "52370",
    "line1": "1 52370U 22045AR  26179.92260382 -.00002284  00000+0 -12547-3 0  9996",
    "line2": "2 52370  53.1609  49.6232 0001208  97.4113 262.7015 15.08834960232717"
  },
  {
    "name": "STARLINK-3798",
    "noradId": "52371",
    "line1": "1 52371U 22045AS  26180.24947917  .00074732  00000+0  45891-2 0  9992",
    "line2": "2 52371  53.1618  48.1493 0001280 102.8408 257.2726 15.09432857232751"
  },
  {
    "name": "STARLINK-3796",
    "noradId": "52372",
    "line1": "1 52372U 22045AT  26180.50003471  .00085515  00000+0  45998-2 0  9999",
    "line2": "2 52372  53.1610  46.9444 0000293  68.8097 292.6154 15.14134614  5835"
  },
  {
    "name": "STARLINK-3550",
    "noradId": "52373",
    "line1": "1 52373U 22045AU  26180.50003471  .00134702  00000+0  46483-2 0  9993",
    "line2": "2 52373  53.1607  45.6208 0000597  86.3724 294.5827 15.28988573  5693"
  },
  {
    "name": "STARLINK-3762",
    "noradId": "52374",
    "line1": "1 52374U 22045AV  26180.50003471  .00082842  00000+0  40092-2 0  9991",
    "line2": "2 52374  53.1595  46.7058 0001569  84.0632  81.0467 15.17872392  5843"
  },
  {
    "name": "STARLINK-3785",
    "noradId": "52375",
    "line1": "1 52375U 22045AW  26180.50003471  .00086571  00000+0  45113-2 0  9994",
    "line2": "2 52375  53.1592  46.8687 0000821 113.1014 307.9423 15.15252054  5788"
  },
  {
    "name": "STARLINK-3805",
    "noradId": "52377",
    "line1": "1 52377U 22045AY  26179.91799575 -.00000238  00000+0  31395-5 0  9993",
    "line2": "2 52377  53.1616  49.8559 0001392  95.0621 265.0530 15.08830238232709"
  },
  {
    "name": "STARLINK-3806",
    "noradId": "52378",
    "line1": "1 52378U 22045AZ  26179.95476887  .00000621  00000+0  57100-4 0  9992",
    "line2": "2 52378  53.1609  49.4693 0001405 101.1202 258.9948 15.08846281232727"
  },
  {
    "name": "STARLINK-3800",
    "noradId": "52379",
    "line1": "1 52379U 22045BA  26179.95844768  .00000628  00000+0  57559-4 0  9995",
    "line2": "2 52379  53.1610  49.4525 0001182  89.8546 270.2581 15.08833766232723"
  }
]